NORAD_CAT_ID,OBJECT_NAME,OBJECT_TYPE,EPOCH,MEAN_MOTION,ECCENTRICITY,INCLINATION,RA_OF_ASC_NODE,ARG_OF_PERICENTER,MEAN_ANOMALY,BSTAR,MEAN_MOTION_DOT,MEAN_MOTION_DDOT,TLE_LINE0,TLE_LINE1,TLE_LINE2,SEMIMAJOR_AXIS,PERIOD,APOGEE,PERIGEE,DECAYED
55407.0,STARLINK-5019,PAYLOAD,2023-06-04 14:00:01,15.69907181,0.0003507,70.0007,101.3482,258.3735,307.1353,4.572e-05,5.284e-05,0.0,0 STARLINK-5019,1 55407U 23014S   23155.58335648  .00005284  00000-0  45720-4 0  9990,2 55407  70.0007 101.3482 0003507 258.3735 307.1353 15.69907181 19643,6737.3,91.725,361.527,356.802,0.0
55407.0,STARLINK-5019,PAYLOAD,2023-06-04 16:00:00,15.69864976,0.0003531,70.0007,101.114,256.5393,59.7468,0.00086249,0.00104542,0.0,0 STARLINK-5019,1 55407U 23014S   23155.66667824  .00104542  00000-0  86249-3 0  9990,2 55407  70.0007 101.1140 0003531 256.5393  59.7468 15.69864976  1304,6737.42,91.728,361.664,356.906,0.0
55407.0,STARLINK-5019,PAYLOAD,2023-06-04 22:18:11,15.6993221,0.0002846,69.9976,100.375,244.1324,115.9579,5.5933e-06,4.6e-06,0.0,0 STARLINK-5019,1 55407U 23014S   23155.92929890  .00000460  00000-0  55933-5 0  9995,2 55407  69.9976 100.3750 0002846 244.1324 115.9579 15.69932210 20642,6737.228,91.724,361.01,357.176,0.0
55407.0,STARLINK-5019,PAYLOAD,2023-06-05 04:25:11,15.69933984,0.0003423,69.9977,99.6599,256.8043,103.2771,2.1558e-05,2.381e-05,0.0,0 STARLINK-5019,1 55407U 23014S   23156.18416045  .00002381  00000-0  21558-4 0  9996,2 55407  69.9977  99.6599 0003423 256.8043 103.2771 15.69933984 19746,6737.223,91.724,361.394,356.782,0.0
55407.0,STARLINK-5019,PAYLOAD,2023-06-05 05:56:58,15.69908614,0.0003016,69.9978,99.481,255.5788,104.5073,-6.9624e-06,-1.049e-05,0.0,0 STARLINK-5019,1 55407U 23014S   23156.24789894 -.00001049  00000-0 -69624-5 0  9997,2 55407  69.9978  99.4810 0003016 255.5788 104.5073 15.69908614 19753,6737.295,91.725,361.192,357.128,0.0
55407.0,STARLINK-5019,PAYLOAD,2023-06-05 13:35:43,15.69917127,0.0003282,69.9967,98.5836,259.924,100.1585,-6.9937e-07,-2.97e-06,0.0,0 STARLINK-5019,1 55407U 23014S   23156.56647683 -.00000297  00000-0 -69937-6 0  9993,2 55407  69.9967  98.5836 0003282 259.9240 100.1585 15.69917127 20745,6737.271,91.725,361.347,356.925,0.0
55407.0,STARLINK-5019,PAYLOAD,2023-06-05 21:14:28,15.69917716,0.0003831,69.997,97.6883,260.6048,99.4714,1.3421e-05,1.401e-05,0.0,0 STARLINK-5019,1 55407U 23014S   23156.88505641  .00001401  00000-0  13421-4 0  9996,2 55407  69.9970  97.6883 0003831 260.6048  99.4714 15.69917716 20799,6737.269,91.725,361.715,356.553,0.0
55407.0,STARLINK-5019,PAYLOAD,2023-06-06 07:56:44,15.69919197,0.0003584,69.9977,96.4351,257.7807,102.2987,-4.581e-06,-7.64e-06,0.0,0 STARLINK-5019,1 55407U 23014S   23157.33107572 -.00000764  00000-0 -45810-5 0  9999,2 55407  69.9977  96.4351 0003584 257.7807 102.2987 15.69919197 20866,6737.265,91.724,361.545,356.716,0.0
55407.0,STARLINK-5019,PAYLOAD,2023-06-07 06:00:00,15.69904329,0.0003535,70.0011,93.8514,267.3414,244.7729,0.00027897,0.00033438,0.0,0 STARLINK-5019,1 55407U 23014S   23158.25001157  .00033438  00000-0  27897-3 0  9998,2 55407  70.0011  93.8514 0003535 267.3414 244.7729 15.69904329 20066,6737.308,91.725,361.554,356.791,0.0
55407.0,STARLINK-5019,PAYLOAD,2023-06-07 14:00:01,15.69887152,0.000355,70.0008,92.9142,261.9579,333.4947,0.00048992,0.00059023,0.0,0 STARLINK-5019,1 55407U 23014S   23158.58334491  .00059023  00000-0  48992-3 0  9991,2 55407  70.0008  92.9142 0003550 261.9579 333.4947 15.69887152  1306,6737.357,91.726,361.614,356.83,0.0
55407.0,STARLINK-5019,PAYLOAD,2023-06-07 22:00:00,15.69981804,0.0003658,70.0008,91.9771,261.6066,57.1499,-0.00072352,-0.00086533,0.0,0 STARLINK-5019,1 55407U 23014S   23158.91667824 -.00086533  00000-0 -72352-3 0  9992,2 55407  70.0008  91.9771 0003658 261.6066  57.1499 15.69981804 20177,6737.086,91.721,361.415,356.487,0.0
55407.0,STARLINK-5019,PAYLOAD,2023-06-08 05:49:17,15.69935062,0.0003552,69.9979,91.0601,261.6498,98.4295,2.0189e-05,2.216e-05,0.0,0 STARLINK-5019,1 55407U 23014S   23159.24256481  .00002216  00000-0  20189-4 0  9998,2 55407  69.9979  91.0601 0003552 261.6498  98.4295 15.69935062 20229,6737.22,91.724,361.478,356.692,0.0
55407.0,STARLINK-5019,PAYLOAD,2023-06-08 22:38:34,15.69922594,0.0003501,69.9997,89.0902,261.1424,98.9375,5.1959e-06,4.12e-06,0.0,0 STARLINK-5019,1 55407U 23014S   23159.94345759  .00000412  00000-0  51959-5 0  9998,2 55407  69.9997  89.0902 0003501 261.1424  98.9375 15.69922594 20330,6737.255,91.724,361.479,356.762,0.0
55407.0,STARLINK-5019,PAYLOAD,2023-06-09 04:45:53,15.69567153,0.000273,69.9995,88.3746,243.1004,116.9913,-0.00064248,-0.00075642,0.0,0 STARLINK-5019,1 55407U 23014S   23160.19853028 -.00075642  00000-0 -64248-3 0  9992,2 55407  69.9995  88.3746 0002730 243.1004 116.9913 15.69567153 20372,6738.273,91.745,361.977,358.298,0.0
55407.0,STARLINK-5019,PAYLOAD,2023-06-09 18:31:21,15.69924777,0.0003739,69.9995,86.7615,264.6633,95.4136,1.6193e-05,1.735e-05,0.0,0 STARLINK-5019,1 55407U 23014S   23160.77177433  .00001735  00000-0  16193-4 0  9992,2 55407  69.9995  86.7615 0003739 264.6633  95.4136 15.69924777 20462,6737.249,91.724,361.633,356.595,0.0
55407.0,STARLINK-5019,PAYLOAD,2023-06-10 12:52:23,15.69917406,0.0003755,69.9996,84.6103,268.6555,91.421,4.5203e-06,3.3e-06,0.0,0 STARLINK-5019,1 55407U 23014S   23161.53637830  .00000330  00000-0  45203-5 0  9994,2 55407  69.9996  84.6103 0003755 268.6555  91.4210 15.69917406 21525,6737.27,91.725,361.665,356.605,0.0
55407.0,STARLINK-5019,PAYLOAD,2023-06-10 20:31:08,15.69920859,0.0003731,69.9986,83.7145,269.2387,90.8382,6.3693e-07,-1.36e-06,0.0,0 STARLINK-5019,1 55407U 23014S   23161.85496096 -.00000136  00000-0  63693-6 0  9995,2 55407  69.9986  83.7145 0003731 269.2387  90.8382 15.69920859 21578,6737.26,91.724,361.639,356.612,0.0
55407.0,STARLINK-5019,PAYLOAD,2023-06-11 11:48:39,15.69925957,0.0003526,69.9999,81.9244,265.4798,94.5995,1.5133e-05,1.607e-05,0.0,0 STARLINK-5019,1 55407U 23014S   23162.49212507  .00001607  00000-0  15133-4 0  9996,2 55407  69.9999  81.9244 0003526 265.4798  94.5995 15.69925957 21674,6737.246,91.724,361.486,356.735,0.0
55407.0,STARLINK-5019,PAYLOAD,2023-06-11 17:55:40,15.69923354,0.0003601,69.9997,81.2082,265.227,94.8514,1.428e-05,1.504e-05,0.0,0 STARLINK-5019,1 55407U 23014S   23162.74699321  .00001504  00000-0  14280-4 0  9995,2 55407  69.9997  81.2082 0003601 265.2270  94.8514 15.69923354 21716,6737.253,91.724,361.544,356.692,0.0
55407.0,STARLINK-5019,PAYLOAD,2023-06-11 22:30:55,15.69925054,0.0003639,69.998,80.671,264.3143,95.7637,1.9723e-05,2.159e-05,0.0,0 STARLINK-5019,1 55407U 23014S   23162.93814156  .00002159  00000-0  19723-4 0  9995,2 55407  69.9980  80.6710 0003639 264.3143  95.7637 15.69925054 21747,6737.248,91.724,361.565,356.662,0.0
55407.0,STARLINK-5019,PAYLOAD,2023-06-12 04:37:57,15.69912027,0.0003058,69.998,79.9545,276.9735,83.1113,-1.2322e-05,-1.693e-05,0.0,0 STARLINK-5019,1 55407U 23014S   23163.19302316 -.00001693  00000-0 -12322-4 0  9996,2 55407  69.9980  79.9545 0003058 276.9735  83.1113 15.69912027 20841,6737.286,91.725,361.211,357.09,0.0
55407.0,STARLINK-5019,PAYLOAD,2023-06-13 00:30:42,15.69920954,0.0003728,69.9973,77.6237,269.8856,90.1913,1.5244e-05,1.62e-05,0.0,0 STARLINK-5019,1 55407U 23014S   23164.02133005  .00001620  00000-0  15244-4 0  9990,2 55407  69.9973  77.6237 0003728 269.8856  90.1913 15.69920954 20973,6737.26,91.724,361.637,356.613,0.0
55407.0,STARLINK-5019,PAYLOAD,2023-06-13 03:34:12,15.69928874,0.0003361,69.9995,77.2651,267.703,92.3781,1.4741e-05,1.56e-05,0.0,0 STARLINK-5019,1 55407U 23014S   23164.14875831  .00001560  00000-0  14741-4 0  9997,2 55407  69.9995  77.2651 0003361 267.7030  92.3781 15.69928874 20995,6737.237,91.724,361.367,356.838,0.0
55407.0,STARLINK-5019,PAYLOAD,2023-06-14 04:02:14,15.69927832,0.0003222,69.9994,74.3992,267.7408,92.3419,5.3534e-06,4.31e-06,0.0,0 STARLINK-5019,1 55407U 23014S   23165.16822618  .00000431  00000-0  53534-5 0  9995,2 55407  69.9994  74.3992 0003222 267.7408  92.3419 15.69927832 21155,6737.24,91.724,361.276,356.935,0.0
55407.0,STARLINK-5019,PAYLOAD,2023-06-15 02:58:31,15.69926184,0.0003426,69.9997,71.7125,271.7671,88.3132,4.9801e-08,-2.07e-06,0.0,0 STARLINK-5019,1 55407U 23014S   23166.12397964 -.00000207  00000-0  49801-7 0  9999,2 55407  69.9997  71.7125 0003426 271.7671  88.3132 15.69926184 21303,6737.245,91.724,361.418,356.802,0.0
55407.0,STARLINK-5019,PAYLOAD,2023-06-16 11:05:19,15.69929094,0.0003268,69.9995,67.9515,272.9009,87.1812,3.3854e-05,3.861e-05,0.0,0 STARLINK-5019,1 55407U 23014S   23167.46202983  .00003861  00000-0  33854-4 0  9999,2 55407  69.9995  67.9515 0003268 272.9009  87.1812 15.69929094 21511,6737.237,91.724,361.304,356.9,0.0
55407.0,STARLINK-5019,PAYLOAD,2023-06-17 02:22:51,15.69896691,0.0003528,70.0005,66.1604,258.8637,101.2162,-4.4192e-05,-5.517e-05,0.0,0 STARLINK-5019,1 55407U 23014S   23168.09921042 -.00005517  00000-0 -44192-4 0  9992,2 55407  70.0005  66.1604 0003528 258.8637 101.2162 15.69896691 21618,6737.33,91.726,361.571,356.818,0.0
55407.0,STARLINK-5019,PAYLOAD,2023-06-17 16:08:37,15.69910463,0.0003541,70.0003,64.5478,264.1552,95.924,-1.1807e-05,-1.631e-05,0.0,0 STARLINK-5019,1 55407U 23014S   23168.67265910 -.00001631  00000-0 -11807-4 0  9991,2 55407  70.0003  64.5478 0003541 264.1552  95.9240 15.69910463 21708,6737.29,91.725,361.541,356.769,0.0
55407.0,STARLINK-5019,PAYLOAD,2023-06-17 20:43:53,15.69916994,0.0002949,70.0,64.0105,283.3535,76.7332,6.8176e-07,-1.31e-06,0.0,0 STARLINK-5019,1 55407U 23014S   23168.86380910 -.00000131  00000-0  68176-6 0  9996,2 55407  70.0000  64.0105 0002949 283.3535  76.7332 15.69916994 22673,6737.271,91.725,361.123,357.15,0.0
55407.0,STARLINK-5019,PAYLOAD,2023-06-17 23:47:22,15.69938059,0.0003736,70.0005,63.6528,267.5546,92.5222,4.0228e-05,4.63e-05,0.0,0 STARLINK-5019,1 55407U 23014S   23168.99122988  .00004630  00000-0  40228-4 0  9992,2 55407  70.0005  63.6528 0003736 267.5546  92.5222 15.69938059 21751,6737.211,91.723,361.593,356.559,0.0
